<?xml version="1.0" encoding="UTF-8" standalone="no" ?>
<gpx xmlns="http://www.topografix.com/GPX/1/1" xmlns:xsi="http://www.w3.org/2001/XMLSchema-instance" creator="Kurviger.de" version="1.1" xmlns:gh="https://kurviger.de/public/schema/gpx/1.1">
<metadata>
<name>Stuttgart Hauptbahnhof, Stuttgart - Flughafen Stuttgart, Filderstadt</name>
<copyright author="OpenStreetMap contributors"/>
<link href="https://kurviger.de">
<text>Kurviger.de GPX</text>
</link>
<time>2024-11-29T15:07:45Z</time>
</metadata>
<trk><name>Stuttgart Hauptbahnhof, Stuttgart - Flughafen Stuttgart, Filderstadt</name><trkseg>
<trkpt lat="48.786431" lon="9.181375"><ele>260.68</ele><time>2024-11-29T15:07:45Z</time></trkpt>
<trkpt lat="48.786321" lon="9.181026"><ele>259.56</ele><time>2024-11-29T15:07:52Z</time></trkpt>
<trkpt lat="48.786106" lon="9.180771"><ele>257.73</ele><time>2024-11-29T15:07:57Z</time></trkpt>
<trkpt lat="48.786074" lon="9.180676"><ele>257.09</ele><time>2024-11-29T15:08:01Z</time></trkpt>
<trkpt lat="48.786077" lon="9.180216"><ele>256.2</ele><time>2024-11-29T15:08:05Z</time></trkpt>
<trkpt lat="48.786047" lon="9.180156"><ele>255.51</ele><time>2024-11-29T15:08:09Z</time></trkpt>
<trkpt lat="48.785947" lon="9.180057"><ele>253.72</ele><time>2024-11-29T15:08:13Z</time></trkpt>
<trkpt lat="48.785338" lon="9.179892"><ele>249.34</ele><time>2024-11-29T15:08:17Z</time></trkpt>
<trkpt lat="48.785213" lon="9.179839"><ele>249.68</ele><time>2024-11-29T15:08:21Z</time></trkpt>
<trkpt lat="48.784892" lon="9.179599"><ele>249.61</ele><time>2024-11-29T15:08:25Z</time></trkpt>
<trkpt lat="48.784627" lon="9.179304"><ele>248.83</ele><time>2024-11-29T15:08:30Z</time></trkpt>
<trkpt lat="48.78454" lon="9.17925"><ele>248.54</ele><time>2024-11-29T15:08:32Z</time></trkpt>
<trkpt lat="48.784203" lon="9.17893"><ele>247.15</ele><time>2024-11-29T15:08:34Z</time></trkpt>
<trkpt lat="48.784036" lon="9.178904"><ele>247.5</ele><time>2024-11-29T15:08:36Z</time></trkpt>
<trkpt lat="48.783362" lon="9.180476"><ele>247.19</ele><time>2024-11-29T15:08:51Z</time></trkpt>
<trkpt lat="48.783051" lon="9.181244"><ele>249.52</ele><time>2024-11-29T15:09:05Z</time></trkpt>
<trkpt lat="48.782362" lon="9.18311"><ele>245.08</ele><time>2024-11-29T15:09:19Z</time></trkpt>
<trkpt lat="48.782175" lon="9.183828"><ele>247.89</ele><time>2024-11-29T15:09:33Z</time></trkpt>
<trkpt lat="48.781914" lon="9.18472"><ele>244.79</ele><time>2024-11-29T15:09:47Z</time></trkpt>
<trkpt lat="48.781795" lon="9.18503"><ele>243.87</ele><time>2024-11-29T15:10:02Z</time></trkpt>
<trkpt lat="48.781576" lon="9.185828"><ele>244.65</ele><time>2024-11-29T15:10:16Z</time></trkpt>
<trkpt lat="48.781487" lon="9.186124"><ele>246.4</ele><time>2024-11-29T15:10:30Z</time></trkpt>
<trkpt lat="48.781416" lon="9.186294"><ele>246.76</ele><time>2024-11-29T15:10:44Z</time></trkpt>
<trkpt lat="48.781268" lon="9.186813"><ele>248.3</ele><time>2024-11-29T15:10:58Z</time></trkpt>
<trkpt lat="48.780849" lon="9.188232"><ele>259.01</ele><time>2024-11-29T15:11:13Z</time></trkpt>
<trkpt lat="48.780849" lon="9.188232"><ele>259.01</ele><time>2024-11-29T15:11:27Z</time></trkpt>
<trkpt lat="48.780569" lon="9.189142"><ele>262.64</ele><time>2024-11-29T15:11:41Z</time></trkpt>
<trkpt lat="48.779638" lon="9.192436"><ele>275.69</ele><time>2024-11-29T15:11:55Z</time></trkpt>
<trkpt lat="48.779522" lon="9.192931"><ele>277.62</ele><time>2024-11-29T15:12:09Z</time></trkpt>
<trkpt lat="48.779368" lon="9.193768"><ele>280.86</ele><time>2024-11-29T15:12:24Z</time></trkpt>
<trkpt lat="48.77932" lon="9.19421"><ele>282.55</ele><time>2024-11-29T15:12:38Z</time></trkpt>
<trkpt lat="48.779265" lon="9.195028"><ele>285.68</ele><time>2024-11-29T15:12:52Z</time></trkpt>
<trkpt lat="48.779294" lon="9.196221"><ele>290.22</ele><time>2024-11-29T15:13:06Z</time></trkpt>
<trkpt lat="48.779495" lon="9.197505"><ele>295.16</ele><time>2024-11-29T15:13:20Z</time></trkpt>
<trkpt lat="48.779761" lon="9.198848"><ele>300.38</ele><time>2024-11-29T15:13:34Z</time></trkpt>
<trkpt lat="48.779907" lon="9.199419"><ele>298.23</ele><time>2024-11-29T15:13:49Z</time></trkpt>
<trkpt lat="48.780207" lon="9.201126"><ele>291.44</ele><time>2024-11-29T15:14:03Z</time></trkpt>
<trkpt lat="48.780125" lon="9.201183"><ele>291.7</ele><time>2024-11-29T15:14:09Z</time></trkpt>
<trkpt lat="48.780038" lon="9.201282"><ele>291.58</ele><time>2024-11-29T15:14:16Z</time></trkpt>
<trkpt lat="48.779917" lon="9.201493"><ele>293.16</ele><time>2024-11-29T15:14:22Z</time></trkpt>
<trkpt lat="48.779865" lon="9.201692"><ele>295.01</ele><time>2024-11-29T15:14:29Z</time></trkpt>
<trkpt lat="48.779685" lon="9.202711"><ele>298.54</ele><time>2024-11-29T15:14:35Z</time></trkpt>
<trkpt lat="48.779621" lon="9.202938"><ele>298.51</ele><time>2024-11-29T15:14:41Z</time></trkpt>
<trkpt lat="48.779511" lon="9.203165"><ele>299.3</ele><time>2024-11-29T15:14:48Z</time></trkpt>
<trkpt lat="48.77933" lon="9.203361"><ele>301.49</ele><time>2024-11-29T15:14:54Z</time></trkpt>
<trkpt lat="48.779139" lon="9.203519"><ele>303.4</ele><time>2024-11-29T15:15:01Z</time></trkpt>
<trkpt lat="48.778856" lon="9.2037"><ele>302.6</ele><time>2024-11-29T15:15:07Z</time></trkpt>
<trkpt lat="48.778695" lon="9.203766"><ele>303.28</ele><time>2024-11-29T15:15:14Z</time></trkpt>
<trkpt lat="48.77837" lon="9.203811"><ele>304.43</ele><time>2024-11-29T15:15:20Z</time></trkpt>
<trkpt lat="48.778202" lon="9.203788"><ele>306.15</ele><time>2024-11-29T15:15:26Z</time></trkpt>
<trkpt lat="48.777527" lon="9.203365"><ele>309.75</ele><time>2024-11-29T15:15:33Z</time></trkpt>
<trkpt lat="48.777351" lon="9.203211"><ele>311.32</ele><time>2024-11-29T15:15:39Z</time></trkpt>
<trkpt lat="48.777159" lon="9.202997"><ele>313.52</ele><time>2024-11-29T15:15:46Z</time></trkpt>
<trkpt lat="48.776207" lon="9.201783"><ele>318.24</ele><time>2024-11-29T15:15:52Z</time></trkpt>
<trkpt lat="48.776114" lon="9.201704"><ele>318.61</ele><time>2024-11-29T15:15:59Z</time></trkpt>
<trkpt lat="48.7757" lon="9.201456"><ele>324.75</ele><time>2024-11-29T15:16:05Z</time></trkpt>
<trkpt lat="48.77559" lon="9.201354"><ele>327.27</ele><time>2024-11-29T15:16:11Z</time></trkpt>
<trkpt lat="48.775298" lon="9.200913"><ele>333.8</ele><time>2024-11-29T15:16:18Z</time></trkpt>
<trkpt lat="48.775184" lon="9.20079"><ele>334.36</ele><time>2024-11-29T15:16:24Z</time></trkpt>
<trkpt lat="48.775047" lon="9.200688"><ele>333.99</ele><time>2024-11-29T15:16:31Z</time></trkpt>
<trkpt lat="48.77457" lon="9.200488"><ele>330.1</ele><time>2024-11-29T15:16:37Z</time></trkpt>
<trkpt lat="48.774462" lon="9.200385"><ele>329.2</ele><time>2024-11-29T15:16:43Z</time></trkpt>
<trkpt lat="48.774224" lon="9.200026"><ele>329.83</ele><time>2024-11-29T15:16:50Z</time></trkpt>
<trkpt lat="48.773715" lon="9.198974"><ele>339.63</ele><time>2024-11-29T15:16:56Z</time></trkpt>
<trkpt lat="48.773502" lon="9.198665"><ele>343.34</ele><time>2024-11-29T15:17:03Z</time></trkpt>
<trkpt lat="48.773238" lon="9.198423"><ele>346.38</ele><time>2024-11-29T15:17:09Z</time></trkpt>
<trkpt lat="48.772347" lon="9.197735"><ele>350.53</ele><time>2024-11-29T15:17:16Z</time></trkpt>
<trkpt lat="48.77112" lon="9.196927"><ele>360.19</ele><time>2024-11-29T15:17:22Z</time></trkpt>
<trkpt lat="48.77029" lon="9.196445"><ele>366.34</ele><time>2024-11-29T15:17:28Z</time></trkpt>
<trkpt lat="48.769947" lon="9.196093"><ele>368.05</ele><time>2024-11-29T15:17:35Z</time></trkpt>
<trkpt lat="48.769823" lon="9.195912"><ele>368.26</ele><time>2024-11-29T15:17:41Z</time></trkpt>
<trkpt lat="48.769533" lon="9.195456"><ele>369.24</ele><time>2024-11-29T15:17:48Z</time></trkpt>
<trkpt lat="48.769197" lon="9.194984"><ele>370.9</ele><time>2024-11-29T15:17:54Z</time></trkpt>
<trkpt lat="48.76882" lon="9.194525"><ele>372.47</ele><time>2024-11-29T15:18:01Z</time></trkpt>
<trkpt lat="48.768406" lon="9.194098"><ele>374.39</ele><time>2024-11-29T15:18:07Z</time></trkpt>
<trkpt lat="48.768174" lon="9.193911"><ele>374.79</ele><time>2024-11-29T15:18:13Z</time></trkpt>
<trkpt lat="48.76796" lon="9.193821"><ele>375.73</ele><time>2024-11-29T15:18:20Z</time></trkpt>
<trkpt lat="48.767805" lon="9.193823"><ele>377.3</ele><time>2024-11-29T15:18:26Z</time></trkpt>
<trkpt lat="48.767562" lon="9.193919"><ele>374.38</ele><time>2024-11-29T15:18:33Z</time></trkpt>
<trkpt lat="48.767407" lon="9.194052"><ele>374.23</ele><time>2024-11-29T15:18:39Z</time></trkpt>
<trkpt lat="48.767159" lon="9.194356"><ele>376.94</ele><time>2024-11-29T15:18:46Z</time></trkpt>
<trkpt lat="48.766997" lon="9.194626"><ele>379.38</ele><time>2024-11-29T15:18:52Z</time></trkpt>
<trkpt lat="48.766791" lon="9.195118"><ele>383.03</ele><time>2024-11-29T15:18:58Z</time></trkpt>
<trkpt lat="48.766703" lon="9.195449"><ele>386.06</ele><time>2024-11-29T15:19:05Z</time></trkpt>
<trkpt lat="48.76663" lon="9.195824"><ele>387.07</ele><time>2024-11-29T15:19:11Z</time></trkpt>
<trkpt lat="48.766585" lon="9.196331"><ele>387.42</ele><time>2024-11-29T15:19:18Z</time></trkpt>
<trkpt lat="48.766581" lon="9.196873"><ele>391.93</ele><time>2024-11-29T15:19:24Z</time></trkpt>
<trkpt lat="48.766613" lon="9.197438"><ele>395.39</ele><time>2024-11-29T15:19:30Z</time></trkpt>
<trkpt lat="48.766793" lon="9.199059"><ele>410.4</ele><time>2024-11-29T15:19:37Z</time></trkpt>
<trkpt lat="48.766797" lon="9.199388"><ele>412.22</ele><time>2024-11-29T15:19:43Z</time></trkpt>
<trkpt lat="48.766781" lon="9.199575"><ele>413.06</ele><time>2024-11-29T15:19:50Z</time></trkpt>
<trkpt lat="48.766723" lon="9.199885"><ele>414.73</ele><time>2024-11-29T15:19:56Z</time></trkpt>
<trkpt lat="48.766624" lon="9.200217"><ele>416.78</ele><time>2024-11-29T15:20:03Z</time></trkpt>
<trkpt lat="48.766519" lon="9.20042"><ele>417.51</ele><time>2024-11-29T15:20:09Z</time></trkpt>
<trkpt lat="48.766367" lon="9.200641"><ele>417.79</ele><time>2024-11-29T15:20:15Z</time></trkpt>
<trkpt lat="48.766219" lon="9.200803"><ele>416.71</ele><time>2024-11-29T15:20:22Z</time></trkpt>
<trkpt lat="48.765922" lon="9.201062"><ele>417.94</ele><time>2024-11-29T15:20:28Z</time></trkpt>
<trkpt lat="48.765788" lon="9.201147"><ele>419.86</ele><time>2024-11-29T15:20:35Z</time></trkpt>
<trkpt lat="48.76552" lon="9.201204"><ele>422.97</ele><time>2024-11-29T15:20:41Z</time></trkpt>
<trkpt lat="48.764194" lon="9.200911"><ele>438.03</ele><time>2024-11-29T15:20:48Z</time></trkpt>
<trkpt lat="48.762971" lon="9.200372"><ele>436.2</ele><time>2024-11-29T15:20:54Z</time></trkpt>
<trkpt lat="48.762603" lon="9.200263"><ele>437.22</ele><time>2024-11-29T15:21:00Z</time></trkpt>
<trkpt lat="48.762011" lon="9.200171"><ele>437.24</ele><time>2024-11-29T15:21:07Z</time></trkpt>
<trkpt lat="48.761833" lon="9.200105"><ele>435.33</ele><time>2024-11-29T15:21:13Z</time></trkpt>
<trkpt lat="48.761723" lon="9.200036"><ele>433.8</ele><time>2024-11-29T15:21:20Z</time></trkpt>
<trkpt lat="48.761624" lon="9.199955"><ele>432.98</ele><time>2024-11-29T15:21:26Z</time></trkpt>
<trkpt lat="48.761445" lon="9.199753"><ele>432.29</ele><time>2024-11-29T15:21:33Z</time></trkpt>
<trkpt lat="48.761272" lon="9.199459"><ele>433.36</ele><time>2024-11-29T15:21:39Z</time></trkpt>
<trkpt lat="48.760117" lon="9.196839"><ele>437.66</ele><time>2024-11-29T15:21:45Z</time></trkpt>
<trkpt lat="48.759733" lon="9.195932"><ele>435.58</ele><time>2024-11-29T15:21:52Z</time></trkpt>
<trkpt lat="48.759504" lon="9.195449"><ele>441.07</ele><time>2024-11-29T15:21:58Z</time></trkpt>
<trkpt lat="48.759349" lon="9.195221"><ele>444.78</ele><time>2024-11-29T15:22:05Z</time></trkpt>
<trkpt lat="48.759157" lon="9.195029"><ele>449.04</ele><time>2024-11-29T15:22:11Z</time></trkpt>
<trkpt lat="48.759015" lon="9.19494"><ele>453.37</ele><time>2024-11-29T15:22:17Z</time></trkpt>
<trkpt lat="48.758848" lon="9.194873"><ele>457.58</ele><time>2024-11-29T15:22:24Z</time></trkpt>
<trkpt lat="48.758633" lon="9.194853"><ele>458.99</ele><time>2024-11-29T15:22:30Z</time></trkpt>
<trkpt lat="48.758269" lon="9.19487"><ele>459.35</ele><time>2024-11-29T15:22:37Z</time></trkpt>
<trkpt lat="48.758008" lon="9.194858"><ele>460.59</ele><time>2024-11-29T15:22:43Z</time></trkpt>
<trkpt lat="48.757893" lon="9.194833"><ele>459.8</ele><time>2024-11-29T15:22:50Z</time></trkpt>
<trkpt lat="48.757669" lon="9.19472"><ele>460.42</ele><time>2024-11-29T15:22:56Z</time></trkpt>
<trkpt lat="48.757513" lon="9.19461"><ele>461.41</ele><time>2024-11-29T15:23:02Z</time></trkpt>
<trkpt lat="48.757301" lon="9.194388"><ele>464.61</ele><time>2024-11-29T15:23:08Z</time></trkpt>
<trkpt lat="48.756826" lon="9.193772"><ele>474.26</ele><time>2024-11-29T15:23:13Z</time></trkpt>
<trkpt lat="48.756724" lon="9.193682"><ele>475.23</ele><time>2024-11-29T15:23:19Z</time></trkpt>
<trkpt lat="48.756554" lon="9.193572"><ele>476.97</ele><time>2024-11-29T15:23:24Z</time></trkpt>
<trkpt lat="48.756315" lon="9.193505"><ele>478.42</ele><time>2024-11-29T15:23:30Z</time></trkpt>
<trkpt lat="48.755661" lon="9.193487"><ele>481.35</ele><time>2024-11-29T15:23:35Z</time></trkpt>
<trkpt lat="48.755022" lon="9.193571"><ele>483.08</ele><time>2024-11-29T15:23:41Z</time></trkpt>
<trkpt lat="48.754309" lon="9.193737"><ele>480.09</ele><time>2024-11-29T15:23:46Z</time></trkpt>
<trkpt lat="48.753994" lon="9.193841"><ele>479.24</ele><time>2024-11-29T15:23:51Z</time></trkpt>
<trkpt lat="48.753578" lon="9.193963"><ele>479.79</ele><time>2024-11-29T15:23:57Z</time></trkpt>
<trkpt lat="48.753372" lon="9.194084"><ele>478.95</ele><time>2024-11-29T15:24:02Z</time></trkpt>
<trkpt lat="48.75319" lon="9.194236"><ele>477.88</ele><time>2024-11-29T15:24:08Z</time></trkpt>
<trkpt lat="48.752813" lon="9.194657"><ele>478.98</ele><time>2024-11-29T15:24:13Z</time></trkpt>
<trkpt lat="48.752603" lon="9.194966"><ele>480.26</ele><time>2024-11-29T15:24:19Z</time></trkpt>
<trkpt lat="48.752339" lon="9.195446"><ele>480.19</ele><time>2024-11-29T15:24:24Z</time></trkpt>
<trkpt lat="48.751886" lon="9.195977"><ele>476.17</ele><time>2024-11-29T15:24:30Z</time></trkpt>
<trkpt lat="48.749694" lon="9.197691"><ele>465.62</ele><time>2024-11-29T15:24:35Z</time></trkpt>
<trkpt lat="48.74914" lon="9.198037"><ele>461.88</ele><time>2024-11-29T15:24:41Z</time></trkpt>
<trkpt lat="48.748731" lon="9.198254"><ele>459.27</ele><time>2024-11-29T15:24:46Z</time></trkpt>
<trkpt lat="48.747766" lon="9.198687"><ele>459.23</ele><time>2024-11-29T15:24:51Z</time></trkpt>
<trkpt lat="48.744775" lon="9.199824"><ele>436.55</ele><time>2024-11-29T15:24:57Z</time></trkpt>
<trkpt lat="48.743998" lon="9.200228"><ele>429.57</ele><time>2024-11-29T15:25:02Z</time></trkpt>
<trkpt lat="48.74314" lon="9.200947"><ele>423.14</ele><time>2024-11-29T15:25:08Z</time></trkpt>
<trkpt lat="48.741808" lon="9.202127"><ele>416.68</ele><time>2024-11-29T15:25:13Z</time></trkpt>
<trkpt lat="48.741404" lon="9.202537"><ele>415.87</ele><time>2024-11-29T15:25:19Z</time></trkpt>
<trkpt lat="48.74112" lon="9.202917"><ele>413.06</ele><time>2024-11-29T15:25:24Z</time></trkpt>
<trkpt lat="48.741021" lon="9.203115"><ele>411.86</ele><time>2024-11-29T15:25:30Z</time></trkpt>
<trkpt lat="48.740923" lon="9.203259"><ele>411.0</ele><time>2024-11-29T15:25:35Z</time></trkpt>
<trkpt lat="48.740015" lon="9.204856"><ele>408.59</ele><time>2024-11-29T15:25:40Z</time></trkpt>
<trkpt lat="48.739848" lon="9.205069"><ele>409.36</ele><time>2024-11-29T15:25:46Z</time></trkpt>
<trkpt lat="48.739488" lon="9.205408"><ele>408.86</ele><time>2024-11-29T15:25:51Z</time></trkpt>
<trkpt lat="48.739336" lon="9.205516"><ele>408.13</ele><time>2024-11-29T15:25:57Z</time></trkpt>
<trkpt lat="48.738962" lon="9.205695"><ele>406.16</ele><time>2024-11-29T15:26:02Z</time></trkpt>
<trkpt lat="48.738753" lon="9.205739"><ele>404.85</ele><time>2024-11-29T15:26:08Z</time></trkpt>
<trkpt lat="48.738518" lon="9.205767"><ele>403.27</ele><time>2024-11-29T15:26:13Z</time></trkpt>
<trkpt lat="48.736546" lon="9.205795"><ele>394.92</ele><time>2024-11-29T15:26:19Z</time></trkpt>
<trkpt lat="48.736168" lon="9.205855"><ele>392.58</ele><time>2024-11-29T15:26:24Z</time></trkpt>
<trkpt lat="48.735863" lon="9.205952"><ele>391.07</ele><time>2024-11-29T15:26:29Z</time></trkpt>
<trkpt lat="48.735582" lon="9.20607"><ele>390.8</ele><time>2024-11-29T15:26:35Z</time></trkpt>
<trkpt lat="48.732439" lon="9.207562"><ele>381.61</ele><time>2024-11-29T15:26:40Z</time></trkpt>
<trkpt lat="48.732245" lon="9.207673"><ele>380.44</ele><time>2024-11-29T15:26:46Z</time></trkpt>
<trkpt lat="48.731773" lon="9.207985"><ele>379.32</ele><time>2024-11-29T15:26:51Z</time></trkpt>
<trkpt lat="48.731215" lon="9.208465"><ele>377.1</ele><time>2024-11-29T15:26:57Z</time></trkpt>
<trkpt lat="48.73035" lon="9.209358"><ele>371.51</ele><time>2024-11-29T15:27:02Z</time></trkpt>
<trkpt lat="48.72999" lon="9.209609"><ele>372.52</ele><time>2024-11-29T15:27:08Z</time></trkpt>
<trkpt lat="48.7296" lon="9.209672"><ele>369.5</ele><time>2024-11-29T15:27:13Z</time></trkpt>
<trkpt lat="48.729158" lon="9.209632"><ele>366.73</ele><time>2024-11-29T15:27:18Z</time></trkpt>
<trkpt lat="48.72882" lon="9.209543"><ele>367.95</ele><time>2024-11-29T15:27:24Z</time></trkpt>
<trkpt lat="48.72841" lon="9.209385"><ele>365.77</ele><time>2024-11-29T15:27:29Z</time></trkpt>
<trkpt lat="48.728226" lon="9.209346"><ele>364.36</ele><time>2024-11-29T15:27:35Z</time></trkpt>
<trkpt lat="48.727886" lon="9.209333"><ele>363.16</ele><time>2024-11-29T15:27:40Z</time></trkpt>
<trkpt lat="48.727707" lon="9.209358"><ele>362.49</ele><time>2024-11-29T15:27:46Z</time></trkpt>
<trkpt lat="48.727272" lon="9.20956"><ele>360.25</ele><time>2024-11-29T15:27:51Z</time></trkpt>
<trkpt lat="48.727" lon="9.209799"><ele>361.6</ele><time>2024-11-29T15:27:57Z</time></trkpt>
<trkpt lat="48.726673" lon="9.210208"><ele>362.24</ele><time>2024-11-29T15:28:02Z</time></trkpt>
<trkpt lat="48.726262" lon="9.210799"><ele>358.56</ele><time>2024-11-29T15:28:07Z</time></trkpt>
<trkpt lat="48.725915" lon="9.211353"><ele>359.63</ele><time>2024-11-29T15:28:13Z</time></trkpt>
<trkpt lat="48.725426" lon="9.212206"><ele>356.93</ele><time>2024-11-29T15:28:18Z</time></trkpt>
<trkpt lat="48.724399" lon="9.214216"><ele>356.13</ele><time>2024-11-29T15:28:24Z</time></trkpt>
<trkpt lat="48.724173" lon="9.214605"><ele>355.44</ele><time>2024-11-29T15:28:29Z</time></trkpt>
<trkpt lat="48.723683" lon="9.21535"><ele>352.07</ele><time>2024-11-29T15:28:35Z</time></trkpt>
<trkpt lat="48.723253" lon="9.215907"><ele>352.8</ele><time>2024-11-29T15:28:40Z</time></trkpt>
<trkpt lat="48.722791" lon="9.2164"><ele>353.79</ele><time>2024-11-29T15:28:46Z</time></trkpt>
<trkpt lat="48.722465" lon="9.216691"><ele>352.04</ele><time>2024-11-29T15:28:51Z</time></trkpt>
<trkpt lat="48.721134" lon="9.217702"><ele>350.86</ele><time>2024-11-29T15:28:56Z</time></trkpt>
<trkpt lat="48.720881" lon="9.217937"><ele>352.18</ele><time>2024-11-29T15:29:02Z</time></trkpt>
<trkpt lat="48.720454" lon="9.218417"><ele>350.88</ele><time>2024-11-29T15:29:07Z</time></trkpt>
<trkpt lat="48.72007" lon="9.218969"><ele>353.02</ele><time>2024-11-29T15:29:13Z</time></trkpt>
<trkpt lat="48.719868" lon="9.219315"><ele>353.22</ele><time>2024-11-29T15:29:18Z</time></trkpt>
<trkpt lat="48.719255" lon="9.220558"><ele>349.63</ele><time>2024-11-29T15:29:24Z</time></trkpt>
<trkpt lat="48.719093" lon="9.220853"><ele>347.45</ele><time>2024-11-29T15:29:29Z</time></trkpt>
<trkpt lat="48.718918" lon="9.221116"><ele>345.31</ele><time>2024-11-29T15:29:35Z</time></trkpt>
<trkpt lat="48.71875" lon="9.221326"><ele>344.0</ele><time>2024-11-29T15:29:40Z</time></trkpt>
<trkpt lat="48.718336" lon="9.221727"><ele>343.22</ele><time>2024-11-29T15:29:45Z</time></trkpt>
<trkpt lat="48.717386" lon="9.222558"><ele>339.89</ele><time>2024-11-29T15:29:51Z</time></trkpt>
<trkpt lat="48.716545" lon="9.223281"><ele>337.21</ele><time>2024-11-29T15:29:56Z</time></trkpt>
<trkpt lat="48.716225" lon="9.223517"><ele>337.2</ele><time>2024-11-29T15:30:02Z</time></trkpt>
<trkpt lat="48.715968" lon="9.223688"><ele>335.54</ele><time>2024-11-29T15:30:07Z</time></trkpt>
<trkpt lat="48.714793" lon="9.224321"><ele>338.51</ele><time>2024-11-29T15:30:13Z</time></trkpt>
<trkpt lat="48.714197" lon="9.224699"><ele>334.4</ele><time>2024-11-29T15:30:18Z</time></trkpt>
<trkpt lat="48.712526" lon="9.225848"><ele>328.9</ele><time>2024-11-29T15:30:24Z</time></trkpt>
<trkpt lat="48.712341" lon="9.225931"><ele>329.74</ele><time>2024-11-29T15:30:29Z</time></trkpt>
<trkpt lat="48.712078" lon="9.225981"><ele>330.45</ele><time>2024-11-29T15:30:34Z</time></trkpt>
<trkpt lat="48.711734" lon="9.225974"><ele>331.74</ele><time>2024-11-29T15:30:40Z</time></trkpt>
<trkpt lat="48.711451" lon="9.225889"><ele>332.6</ele><time>2024-11-29T15:30:45Z</time></trkpt>
<trkpt lat="48.711111" lon="9.225685"><ele>333.07</ele><time>2024-11-29T15:30:51Z</time></trkpt>
<trkpt lat="48.710939" lon="9.225534"><ele>332.22</ele><time>2024-11-29T15:30:56Z</time></trkpt>
<trkpt lat="48.710776" lon="9.225347"><ele>331.34</ele><time>2024-11-29T15:31:02Z</time></trkpt>
<trkpt lat="48.710499" lon="9.224895"><ele>332.27</ele><time>2024-11-29T15:31:07Z</time></trkpt>
<trkpt lat="48.710353" lon="9.224543"><ele>332.63</ele><time>2024-11-29T15:31:13Z</time></trkpt>
<trkpt lat="48.710231" lon="9.224159"><ele>332.33</ele><time>2024-11-29T15:31:18Z</time></trkpt>
<trkpt lat="48.709066" lon="9.220232"><ele>337.88</ele><time>2024-11-29T15:31:23Z</time></trkpt>
<trkpt lat="48.708796" lon="9.219478"><ele>336.9</ele><time>2024-11-29T15:31:29Z</time></trkpt>
<trkpt lat="48.708559" lon="9.218899"><ele>338.1</ele><time>2024-11-29T15:31:34Z</time></trkpt>
<trkpt lat="48.707738" lon="9.217007"><ele>341.39</ele><time>2024-11-29T15:31:40Z</time></trkpt>
<trkpt lat="48.707553" lon="9.216624"><ele>340.92</ele><time>2024-11-29T15:31:45Z</time></trkpt>
<trkpt lat="48.707353" lon="9.216306"><ele>340.4</ele><time>2024-11-29T15:31:51Z</time></trkpt>
<trkpt lat="48.707071" lon="9.215964"><ele>341.56</ele><time>2024-11-29T15:31:56Z</time></trkpt>
<trkpt lat="48.706898" lon="9.215804"><ele>343.21</ele><time>2024-11-29T15:32:02Z</time></trkpt>
<trkpt lat="48.706718" lon="9.215669"><ele>344.18</ele><time>2024-11-29T15:32:07Z</time></trkpt>
<trkpt lat="48.706289" lon="9.215461"><ele>343.8</ele><time>2024-11-29T15:32:12Z</time></trkpt>
<trkpt lat="48.706039" lon="9.215406"><ele>344.38</ele><time>2024-11-29T15:32:18Z</time></trkpt>
<trkpt lat="48.705693" lon="9.215392"><ele>345.41</ele><time>2024-11-29T15:32:23Z</time></trkpt>
<trkpt lat="48.705434" lon="9.215437"><ele>345.57</ele><time>2024-11-29T15:32:29Z</time></trkpt>
<trkpt lat="48.705097" lon="9.215565"><ele>347.43</ele><time>2024-11-29T15:32:34Z</time></trkpt>
<trkpt lat="48.704729" lon="9.215815"><ele>354.66</ele><time>2024-11-29T15:32:40Z</time></trkpt>
<trkpt lat="48.704384" lon="9.216168"><ele>357.77</ele><time>2024-11-29T15:32:45Z</time></trkpt>
<trkpt lat="48.70292" lon="9.218564"><ele>365.6</ele><time>2024-11-29T15:32:51Z</time></trkpt>
<trkpt lat="48.702647" lon="9.218962"><ele>364.32</ele><time>2024-11-29T15:32:56Z</time></trkpt>
<trkpt lat="48.702282" lon="9.219383"><ele>365.39</ele><time>2024-11-29T15:33:01Z</time></trkpt>
<trkpt lat="48.70206" lon="9.219591"><ele>368.22</ele><time>2024-11-29T15:33:07Z</time></trkpt>
<trkpt lat="48.701744" lon="9.219827"><ele>369.28</ele><time>2024-11-29T15:33:12Z</time></trkpt>
<trkpt lat="48.70138" lon="9.220036"><ele>367.9</ele><time>2024-11-29T15:33:18Z</time></trkpt>
<trkpt lat="48.700968" lon="9.220197"><ele>368.66</ele><time>2024-11-29T15:33:23Z</time></trkpt>
<trkpt lat="48.700459" lon="9.220272"><ele>369.35</ele><time>2024-11-29T15:33:29Z</time></trkpt>
<trkpt lat="48.700076" lon="9.22029"><ele>370.69</ele><time>2024-11-29T15:33:34Z</time></trkpt>
<trkpt lat="48.69903" lon="9.220327"><ele>372.0</ele><time>2024-11-29T15:33:40Z</time></trkpt>
<trkpt lat="48.698272" lon="9.220409"><ele>372.12</ele><time>2024-11-29T15:33:45Z</time></trkpt>
<trkpt lat="48.697793" lon="9.220556"><ele>372.94</ele><time>2024-11-29T15:33:50Z</time></trkpt>
<trkpt lat="48.697364" lon="9.220761"><ele>376.0</ele><time>2024-11-29T15:33:56Z</time></trkpt>
<trkpt lat="48.696979" lon="9.22103"><ele>376.0</ele><time>2024-11-29T15:34:01Z</time></trkpt>
<trkpt lat="48.696713" lon="9.221222"><ele>376.0</ele><time>2024-11-29T15:34:07Z</time></trkpt>
<trkpt lat="48.696408" lon="9.221395"><ele>375.98</ele><time>2024-11-29T15:34:12Z</time></trkpt>
<trkpt lat="48.696037" lon="9.221519"><ele>375.14</ele><time>2024-11-29T15:34:18Z</time></trkpt>
<trkpt lat="48.695659" lon="9.22157"><ele>375.76</ele><time>2024-11-29T15:34:23Z</time></trkpt>
<trkpt lat="48.695266" lon="9.221531"><ele>375.93</ele><time>2024-11-29T15:34:29Z</time></trkpt>
<trkpt lat="48.694849" lon="9.221412"><ele>374.37</ele><time>2024-11-29T15:34:34Z</time></trkpt>
<trkpt lat="48.694552" lon="9.221258"><ele>374.18</ele><time>2024-11-29T15:34:39Z</time></trkpt>
<trkpt lat="48.694202" lon="9.221016"><ele>374.04</ele><time>2024-11-29T15:34:45Z</time></trkpt>
<trkpt lat="48.694007" lon="9.220868"><ele>375.14</ele><time>2024-11-29T15:34:50Z</time></trkpt>
<trkpt lat="48.693754" lon="9.220622"><ele>376.48</ele><time>2024-11-29T15:34:56Z</time></trkpt>
<trkpt lat="48.69352" lon="9.220292"><ele>376.04</ele><time>2024-11-29T15:35:01Z</time></trkpt>
<trkpt lat="48.693357" lon="9.219987"><ele>375.66</ele><time>2024-11-29T15:35:07Z</time></trkpt>
<trkpt lat="48.693057" lon="9.219232"><ele>374.77</ele><time>2024-11-29T15:35:12Z</time></trkpt>
<trkpt lat="48.692961" lon="9.218806"><ele>374.8</ele><time>2024-11-29T15:35:18Z</time></trkpt>
<trkpt lat="48.692908" lon="9.218231"><ele>374.53</ele><time>2024-11-29T15:35:23Z</time></trkpt>
<trkpt lat="48.692832" lon="9.216843"><ele>377.0</ele><time>2024-11-29T15:35:28Z</time></trkpt>
<trkpt lat="48.69274" lon="9.214998"><ele>379.01</ele><time>2024-11-29T15:35:34Z</time></trkpt>
<trkpt lat="48.692654" lon="9.214157"><ele>380.65</ele><time>2024-11-29T15:35:39Z</time></trkpt>
<trkpt lat="48.692583" lon="9.210778"><ele>379.74</ele><time>2024-11-29T15:35:45Z</time></trkpt>
<trkpt lat="48.692582" lon="9.209496"><ele>381.22</ele><time>2024-11-29T15:35:50Z</time></trkpt>
<trkpt lat="48.692603" lon="9.207993"><ele>385.71</ele><time>2024-11-29T15:35:56Z</time></trkpt>
<trkpt lat="48.692685" lon="9.205793"><ele>384.43</ele><time>2024-11-29T15:36:01Z</time></trkpt>
</trkseg>
</trk>
</gpx>